NORAD_CAT_ID,OBJECT_NAME,OBJECT_TYPE,EPOCH,MEAN_MOTION,ECCENTRICITY,INCLINATION,RA_OF_ASC_NODE,ARG_OF_PERICENTER,MEAN_ANOMALY,BSTAR,MEAN_MOTION_DOT,MEAN_MOTION_DDOT,TLE_LINE0,TLE_LINE1,TLE_LINE2,SEMIMAJOR_AXIS,PERIOD,APOGEE,PERIGEE,DECAYED
54006.0,STARLINK-5096,PAYLOAD,2022-10-30 22:00:01,15.73131754,0.0002765,53.2182,328.0838,11.7818,352.6352,0.00073539,0.00103575,0.0,0 STARLINK-5096,1 54006U 22125AU  22303.91668981  .00103575  00000-0  73539-3 0  9996,2 54006  53.2182 328.0838 0002765  11.7818 352.6352 15.73131754  1303,6728.09,91.537,351.815,348.094,0.0
54006.0,STARLINK-5096,PAYLOAD,2022-10-31 14:00:01,15.73186466,0.0003067,53.2181,324.7873,15.2442,166.9105,0.00047141,0.00066033,0.0,0 STARLINK-5096,1 54006U 22125AU  22304.58334491  .00066033  00000-0  47141-3 0  9993,2 54006  53.2181 324.7873 0003067  15.2442 166.9105 15.73186466  1304,6727.934,91.534,351.862,347.735,0.0
54006.0,STARLINK-5096,PAYLOAD,2022-10-31 20:00:01,15.73236423,0.0002906,53.2187,323.5484,15.7501,143.18,-0.00018621,-0.0002672,0.0,0 STARLINK-5096,1 54006U 22125AU  22304.83335648 -.00026720  00000-0 -18621-3 0  9998,2 54006  53.2187 323.5484 0002906  15.7501 143.1800 15.73236423  4443,6727.791,91.531,351.611,347.701,0.0
54006.0,STARLINK-5096,PAYLOAD,2022-10-31 22:00:01,15.732122899999998,0.0002877,53.2186,323.1356,16.6374,254.5427,9.3648e-05,0.00012549,0.0,0 STARLINK-5096,1 54006U 22125AU  22304.91668981  .00012549  00000-0  93648-4 0  9991,2 54006  53.2186 323.1356 0002877  16.6374 254.5427 15.73212290  1301,6727.86,91.532,351.661,347.79,0.0
54006.0,STARLINK-5096,PAYLOAD,2022-11-01 12:00:00,15.73212838,0.0003261,53.2185,320.2515,18.7168,318.0711,0.00030841,0.00042916,0.0,0 STARLINK-5096,1 54006U 22125AU  22305.50001157  .00042916  00000-0  30841-3 0  9999,2 54006  53.2185 320.2515 0003261  18.7168 318.0711 15.73212838  4557,6727.859,91.532,351.918,347.53,0.0
54006.0,STARLINK-5096,PAYLOAD,2022-11-01 14:00:01,15.7325258,0.0003237,53.2182,319.8387,18.409,70.6076,-0.00025709,-0.00036639,0.0,0 STARLINK-5096,1 54006U 22125AU  22305.58334491 -.00036639  00000-0 -25709-3 0  9991,2 54006  53.2182 319.8387 0003237  18.4090  70.6076 15.73252580  1302,6727.745,91.53,351.788,347.432,0.0
54006.0,STARLINK-5096,PAYLOAD,2022-11-01 22:00:00,15.73222318,0.0002839999999999,53.2181,318.1873,16.0473,161.9551,-2.0955e-06,-9.17e-06,0.0,0 STARLINK-5096,1 54006U 22125AU  22305.91667824 -.00000917  00000-0 -20955-5 0  9997,2 54006  53.2181 318.1873 0002840  16.0473 161.9551 15.73222318  1309,6727.831999999999,91.532,351.607,347.786,0.0
54006.0,STARLINK-5096,PAYLOAD,2022-11-02 06:00:00,15.73229829,0.0002918999999999,53.2181,316.5396,10.3126,256.646,-0.00083354,-0.00116183,0.0,0 STARLINK-5096,1 54006U 22125AU  22306.25001157 -.00116183  00000-0 -83354-3 0  9999,2 54006  53.2181 316.5396 0002919  10.3126 256.6460 15.73229829  4678,6727.81,91.531,351.639,347.711,0.0
54006.0,STARLINK-5096,PAYLOAD,2022-11-02 14:00:01,15.73137117,0.0003081,53.2174,314.8866,7.5375,348.3383,0.00054547,0.00076437,0.0,0 STARLINK-5096,1 54006U 22125AU  22306.58334491  .00076437  00000-0  54547-3 0  9992,2 54006  53.2174 314.8866 0003081   7.5375 348.3383 15.73137117  4725,6728.074000000001,91.537,352.01199999999994,347.867,0.0
54006.0,STARLINK-5096,PAYLOAD,2022-11-02 22:00:00,15.73153896,0.0002811,53.2182,313.2392,8.1743,76.5583,0.00083326,0.00117754,0.0,0 STARLINK-5096,1 54006U 22125AU  22306.91667824  .00117754  00000-0  83326-3 0  9993,2 54006  53.2182 313.2392 0002811   8.1743  76.5583 15.73153896  4776,6728.026999999999,91.536,351.783,348.0,0.0
54006.0,STARLINK-5096,PAYLOAD,2022-11-03 14:00:01,15.73277524,0.0003106,53.2177,309.942,7.3811,255.2643,-0.00028361,-0.00040378,0.0,0 STARLINK-5096,1 54006U 22125AU  22307.58334491 -.00040378  00000-0 -28361-3 0  9995,2 54006  53.2177 309.9420 0003106   7.3811 255.2643 15.73277524  4889,6727.674,91.529,351.629,347.45,0.0
54006.0,STARLINK-5096,PAYLOAD,2022-11-03 16:00:00,15.73293083,0.0003046,53.2178,309.5291,8.3107,6.5818,-0.00060267,-0.00084717,0.0,0 STARLINK-5096,1 54006U 22125AU  22307.66667824 -.00084717  00000-0 -60267-3 0  9999,2 54006  53.2178 309.5291 0003046   8.3107   6.5818 15.73293083  1307,6727.63,91.528,351.5440000000001,347.446,0.0
54006.0,STARLINK-5096,PAYLOAD,2022-11-04 22:00:01,15.73205802,0.0002888,53.2175,303.3418,15.4864,243.1186,0.00026843,0.00037233,0.0,0 STARLINK-5096,1 54006U 22125AU  22308.91668981  .00037233  00000-0  26843-3 0  9994,2 54006  53.2175 303.3418 0002888  15.4864 243.1186 15.73205802  5098,6727.879,91.533,351.68699999999984,347.801,0.0
54006.0,STARLINK-5096,PAYLOAD,2022-11-05 04:00:00,15.73187727,0.0003038,53.2177,302.1063,15.245,219.9571,-0.00074561,-0.00103957,0.0,0 STARLINK-5096,1 54006U 22125AU  22309.16667824 -.00103957  00000-0 -74561-3 0  9996,2 54006  53.2177 302.1063 0003038  15.2450 219.9571 15.73187727  5139,6727.93,91.534,351.839,347.751,0.0
54006.0,STARLINK-5096,PAYLOAD,2022-11-05 12:00:00,15.73085519,0.0003235,53.2173,300.4577,14.1037,309.9777,0.00050343,0.00070292,0.0,0 STARLINK-5096,1 54006U 22125AU  22309.50001157  .00070292  00000-0  50343-3 0  9990,2 54006  53.2173 300.4577 0003235  14.1037 309.9777 15.73085519  5183,6728.222,91.54,352.26300000000015,347.91,0.0
54006.0,STARLINK-5096,PAYLOAD,2022-11-05 14:00:01,15.73106051,0.0003173,53.2173,300.0447,14.5483,61.7967,0.00033029,0.00045808,0.0,0 STARLINK-5096,1 54006U 22125AU  22309.58335648  .00045808  00000-0  33029-3 0  9990,2 54006  53.2173 300.0447 0003173  14.5483  61.7967 15.73106051  1304,6728.163000000001,91.539,352.163,347.89300000000014,0.0
54006.0,STARLINK-5096,PAYLOAD,2022-11-05 22:00:01,15.73083361,0.0002969,53.2172,298.3938,18.5441,146.6514,0.0019843,0.00286144,0.0,0 STARLINK-5096,1 54006U 22125AU  22309.91668981  .00286144  00000-0  19843-2 0  9993,2 54006  53.2172 298.3938 0002969  18.5441 146.6514 15.73083361  1306,6728.228,91.54,352.09,348.095,0.0
54006.0,STARLINK-5096,PAYLOAD,2022-11-06 06:00:00,15.73356792,0.0003117,53.217,296.7465,18.8708,235.1408,-0.00101,-0.0014101,0.0,0 STARLINK-5096,1 54006U 22125AU  22310.25001157 -.00141010  00000-0 -10100-2 0  9999,2 54006  53.2170 296.7465 0003117  18.8708 235.1408 15.73356792  5307,6727.448,91.524,351.41,347.216,0.0
54006.0,STARLINK-5096,PAYLOAD,2022-11-06 14:00:01,15.73266323,0.0003022,53.217,295.0961,12.4684,330.597,-0.0008479,-0.00118332,0.0,0 STARLINK-5096,1 54006U 22125AU  22310.58334491 -.00118332  00000-0 -84790-3 0  9993,2 54006  53.2170 295.0961 0003022  12.4684 330.5970 15.73266323  1308,6727.706,91.529,351.60400000000016,347.538,0.0
54006.0,STARLINK-5096,PAYLOAD,2022-11-06 22:00:00,15.73198546,0.0002838,53.2173,293.4449,13.6355,58.3832,-7.879600000000001e-05,-0.00011667,0.0,0 STARLINK-5096,1 54006U 22125AU  22310.91667824 -.00011667  00000-0 -78796-4 0  9992,2 54006  53.2173 293.4449 0002838  13.6355  58.3832 15.73198546  5404,6727.899,91.533,351.6740000000001,347.855,0.0
54006.0,STARLINK-5096,PAYLOAD,2022-11-07 22:00:00,15.73233704,0.0002718,53.2169,288.4903,11.4447,327.2944,0.00018074,0.00024859,0.0,0 STARLINK-5096,1 54006U 22125AU  22311.91667824  .00024859  00000-0  18074-3 0  9990,2 54006  53.2169 288.4903 0002718  11.4447 327.2944 15.73233704  5568,6727.799,91.531,351.49300000000005,347.835,0.0
54006.0,STARLINK-5096,PAYLOAD,2022-11-08 06:00:00,15.73236539,0.0002297,53.217,286.8368,339.7057,88.1085,-0.0053972,-0.00699479,0.0,0 STARLINK-5096,1 54006U 22125AU  22312.25001157 -.00699479  00000-0 -53972-2 0  9992,2 54006  53.2170 286.8368 0002297 339.7057  88.1085 15.73236539  5616,6727.791,91.531,351.201,348.111,0.0
54006.0,STARLINK-5096,PAYLOAD,2022-11-08 14:00:01,15.72873531,0.0003454,53.217,285.1813,296.4890000000001,219.9817,-0.0084857999999999,-0.01057475,0.0,0 STARLINK-5096,1 54006U 22125AU  22312.58334491 -.01057475  00000-0 -84858-2 0  9990,2 54006  53.2170 285.1813 0003454 296.4890 219.9817 15.72873531  1300,6728.826,91.552,353.015,348.367,0.0
54006.0,STARLINK-5096,PAYLOAD,2022-11-08 22:00:00,15.72051131,0.0006163,53.2171,283.5348,272.0839,332.4840000000001,-0.0087324,-0.01052713,0.0,0 STARLINK-5096,1 54006U 22125AU  22312.91667824 -.01052713  00000-0 -87324-2 0  9997,2 54006  53.2171 283.5348 0006163 272.0839 332.4840 15.72051131  5720,6731.1730000000025,91.6,357.186,348.889,0.0
54006.0,STARLINK-5096,PAYLOAD,2022-11-09 04:00:00,15.71480838,0.0006239,53.2175,282.3019,271.732,308.2404,-0.0094259,-0.01103222,0.0,0 STARLINK-5096,1 54006U 22125AU  22313.16667824 -.01103222  00000-0 -94259-2 0  9992,2 54006  53.2175 282.3019 0006239 271.7320 308.2404 15.71480838  5761,6732.801,91.633,358.867,350.465,0.0
54006.0,STARLINK-5096,PAYLOAD,2022-11-09 14:00:01,15.70508954,0.0001426,53.2173,280.2449,21.4316,36.3444,-0.01046,-0.01183739,0.0,0 STARLINK-5096,1 54006U 22125AU  22313.58334491 -.01183739  00000-0 -10460-1 0  9991,2 54006  53.2173 280.2449 0001426  21.4316  36.3444 15.70508954  5820,6735.578,91.69,358.404,356.483,0.0
54006.0,STARLINK-5096,PAYLOAD,2022-11-09 22:00:01,15.69670931,0.000149,53.2174,278.6016,41.5899,101.4206,-0.010483,-0.01130303,0.0,0 STARLINK-5096,1 54006U 22125AU  22313.91668981 -.01130303  00000-0 -10483-1 0  9996,2 54006  53.2174 278.6016 0001490  41.5899 101.4206 15.69670931  1304,6737.976,91.739,360.845,358.837,0.0
54006.0,STARLINK-5096,PAYLOAD,2022-11-10 14:00:01,15.68021408,0.0001034,53.2172,275.3242,55.9401,254.3956,-0.01089,-0.01099757,0.0,0 STARLINK-5096,1 54006U 22125AU  22314.58334491 -.01099757  00000-0 -10890-1 0  9995,2 54006  53.2172 275.3242 0001034  55.9401 254.3956 15.68021408  1307,6742.7,91.835,365.262,363.86800000000005,0.0
54006.0,STARLINK-5096,PAYLOAD,2022-11-10 20:00:01,15.67156391,9.95e-05,53.217,274.096,50.1739,232.0605,-0.0076841,-0.00764969,0.0,0 STARLINK-5096,1 54006U 22125AU  22314.83334491 -.00764969  00000-0 -76841-2 0  9995,2 54006  53.2170 274.0960 0000995  50.1739 232.0605 15.67156391  6021,6745.181,91.886,367.717,366.375,0.0
